{"type": "FeatureCollection", "features": [ {"type": "Feature", "properties": {"norad_id": 43058, "name": "GSAT0218 (GALILEO 22)", "group": "galileo", "lat": 37.10015806423932, "lon": 14.958435018920133, "alt_km": 23226.024093295306, "timestamp": "2025-12-08T17:43:05.193727+00:00", "meta": {"OBJECT_NAME": "GSAT0218 (GALILEO 22)", "OBJECT_ID": "2017-079D", "EPOCH": "2025-12-06T18:17:46.482720", "MEAN_MOTION": 1.70473862, "ECCENTRICITY": 0.00028449, "INCLINATION": 55.1307, "RA_OF_ASC_NODE": 226.7982, "ARG_OF_PERICENTER": 305.5375, "MEAN_ANOMALY": 54.5328, "EPHEMERIS_TYPE": 0, "CLASSIFICATION_TYPE": "U", "NORAD_CAT_ID": 43058, "ELEMENT_SET_NO": 999, "REV_AT_EPOCH": 4973, "BSTAR": 0, "MEAN_MOTION_DOT": 2.9e-07, "MEAN_MOTION_DDOT": 0}, "tle": {"line1": "1 43058U 17079D   25340.76234355  .00000029  00000+0  00000+0 0  9992", "line2": "2 43058  55.1307 226.7982 0002844 305.5375  54.5328  1.70473862 49733"}}, "geometry": {"type": "Point", "coordinates": [14.958435018920133, 37.10015806423932]}}, {"type": "Feature", "properties": {"norad_id": 43564, "name": "GSAT0221 (GALILEO 25)", "group": "galileo", "lat": -10.359170861309137, "lon": 173.68704523751396, "alt_km": 23223.33413681058, "timestamp": "2025-12-08T17:43:05.193739+00:00", "meta": {"OBJECT_NAME": "GSAT0221 (GALILEO 25)", "OBJECT_ID": "2018-060A", "EPOCH": "2025-12-06T15:57:28.986048", "MEAN_MOTION": 1.70475679, "ECCENTRICITY": 0.00066883, "INCLINATION": 57.2291, "RA_OF_ASC_NODE": 346.9817, "ARG_OF_PERICENTER": 281.5609, "MEAN_ANOMALY": 78.3858, "EPHEMERIS_TYPE": 0, "CLASSIFICATION_TYPE": "U", "NORAD_CAT_ID": 43564, "ELEMENT_SET_NO": 999, "REV_AT_EPOCH": 4588, "BSTAR": 0, "MEAN_MOTION_DOT": -8.1e-07, "MEAN_MOTION_DDOT": 0}, "tle": {"line1": "1 43564U 18060A   25340.66491882 -.00000081  00000+0  00000+0 0  9993", "line2": "2 43564  57.2291 346.9817 0006688 281.5609  78.3858  1.70475679 45887"}}, "geometry": {"type": "Point", "coordinates": [173.68704523751396, -10.359170861309137]}}, {"type": "Feature", "properties": {"norad_id": 43565, "name": "GSAT0222 (GALILEO 26)", "group": "galileo", "lat": 45.357384967493694, "lon": 27.637837537338317, "alt_km": 23233.42759785681, "timestamp": "2025-12-08T17:43:05.193750+00:00", "meta": {"OBJECT_NAME": "GSAT0222 (GALILEO 26)", "OBJECT_ID": "2018-060B", "EPOCH": "2025-12-05T17:03:57.438144", "MEAN_MOTION": 1.70475397, "ECCENTRICITY": 0.00061787, "INCLINATION": 57.2328, "RA_OF_ASC_NODE": 347.0105, "ARG_OF_PERICENTER": 261.4004, "MEAN_ANOMALY": 98.5552, "EPHEMERIS_TYPE": 0, "CLASSIFICATION_TYPE": "U", "NORAD_CAT_ID": 43565, "ELEMENT_SET_NO": 999, "REV_AT_EPOCH": 4591, "BSTAR": 0, "MEAN_MOTION_DOT": -7.7e-07, "MEAN_MOTION_DDOT": 0}, "tle": {"line1": "1 43565U 18060B   25339.71108146 -.00000077  00000+0  00000+0 0  9991", "line2": "2 43565  57.2328 347.0105 0006178 261.4004  98.5552  1.70475397 45917"}}, "geometry": {"type": "Point", "coordinates": [27.637837537338317, 45.357384967493694]}}, {"type": "Feature", "properties": {"norad_id": 43566, "name": "GSAT0219 (GALILEO 23)", "group": "galileo", "lat": -55.29383359162595, "lon": -81.5202088827883, "alt_km": 23210.822303622295, "timestamp": "2025-12-08T17:43:05.193761+00:00", "meta": {"OBJECT_NAME": "GSAT0219 (GALILEO 23)", "OBJECT_ID": "2018-060C", "EPOCH": "2025-12-07T16:36:27.181728", "MEAN_MOTION": 1.7047564, "ECCENTRICITY": 0.00057893, "INCLINATION": 57.2316, "RA_OF_ASC_NODE": 346.9585, "ARG_OF_PERICENTER": 285.9629, "MEAN_ANOMALY": 73.992, "EPHEMERIS_TYPE": 0, "CLASSIFICATION_TYPE": "U", "NORAD_CAT_ID": 43566, "ELEMENT_SET_NO": 999, "REV_AT_EPOCH": 4592, "BSTAR": 0, "MEAN_MOTION_DOT": -8.4e-07, "MEAN_MOTION_DDOT": 0}, "tle": {"line1": "1 43566U 18060C   25341.69198127 -.00000084  00000+0  00000+0 0  9998", "line2": "2 43566  57.2316 346.9585 0005789 285.9629  73.9920  1.70475640 45924"}}, "geometry": {"type": "Point", "coordinates": [-81.5202088827883, -55.29383359162595]}}, {"type": "Feature", "properties": {"norad_id": 43567, "name": "GSAT0220 (GALILEO 24)", "group": "galileo", "lat": 27.67689135678043, "lon": 147.1807714210489, "alt_km": 23231.96943777694, "timestamp": "2025-12-08T17:43:05.193772+00:00", "meta": {"OBJECT_NAME": "GSAT0220 (GALILEO 24)", "OBJECT_ID": "2018-060D", "EPOCH": "2025-12-07T07:49:54.342624", "MEAN_MOTION": 1.70475454, "ECCENTRICITY": 0.00061757, "INCLINATION": 57.2312, "RA_OF_ASC_NODE": 346.9681, "ARG_OF_PERICENTER": 282.9528, "MEAN_ANOMALY": 76.9979, "EPHEMERIS_TYPE": 0, "CLASSIFICATION_TYPE": "U", "NORAD_CAT_ID": 43567, "ELEMENT_SET_NO": 999, "REV_AT_EPOCH": 4590, "BSTAR": 0, "MEAN_MOTION_DOT": -8.3e-07, "MEAN_MOTION_DDOT": 0}, "tle": {"line1": "1 43567U 18060D   25341.32632341 -.00000083  00000+0  00000+0 0  9999", "line2": "2 43567  57.2312 346.9681 0006175 282.9528  76.9979  1.70475454 45901"}}, "geometry": {"type": "Point", "coordinates": [147.1807714210489, 27.67689135678043]}}, {"type": "Feature", "properties": {"norad_id": 49809, "name": "GSAT0223 (GALILEO 27)", "group": "galileo", "lat": -44.97986321561211, "lon": -153.09074871714395, "alt_km": 23213.66328754966, "timestamp": "2025-12-08T17:43:05.193784+00:00", "meta": {"OBJECT_NAME": "GSAT0223 (GALILEO 27)", "OBJECT_ID": "2021-116A", "EPOCH": "2025-12-07T10:58:36.115680", "MEAN_MOTION": 1.70475566, "ECCENTRICITY": 0.00047089, "INCLINATION": 57.2204, "RA_OF_ASC_NODE": 346.8553, "ARG_OF_PERICENTER": 250.7746, "MEAN_ANOMALY": 280.3454, "EPHEMERIS_TYPE": 0, "CLASSIFICATION_TYPE": "U", "NORAD_CAT_ID": 49809, "ELEMENT_SET_NO": 999, "REV_AT_EPOCH": 2491, "BSTAR": 0, "MEAN_MOTION_DOT": -8.4e-07, "MEAN_MOTION_DDOT": 0}, "tle": {"line1": "1 49809U 21116A   25341.45736245 -.00000084  00000+0  00000+0 0  9993", "line2": "2 49809  57.2204 346.8553 0004708 250.7746 280.3454  1.70475566 24919"}}, "geometry": {"type": "Point", "coordinates": [-153.09074871714395, -44.97986321561211]}}, {"type": "Feature", "properties": {"norad_id": 49810, "name": "GSAT0224 (GALILEO 28)", "group": "galileo", "lat": -8.517383050654786, "lon": -18.72086205473861, "alt_km": 23224.489790517066, "timestamp": "2025-12-08T17:43:05.193795+00:00", "meta": {"OBJECT_NAME": "GSAT0224 (GALILEO 28)", "OBJECT_ID": "2021-116B", "EPOCH": "2025-12-07T13:56:35.698272", "MEAN_MOTION": 1.7047563, "ECCENTRICITY": 0.00040182, "INCLINATION": 57.2213, "RA_OF_ASC_NODE": 346.8506, "ARG_OF_PERICENTER": 254.5241, "MEAN_ANOMALY": 105.0474, "EPHEMERIS_TYPE": 0, "CLASSIFICATION_TYPE": "U", "NORAD_CAT_ID": 49810, "ELEMENT_SET_NO": 999, "REV_AT_EPOCH": 2493, "BSTAR": 0, "MEAN_MOTION_DOT": -8.4e-07, "MEAN_MOTION_DDOT": 0}, "tle": {"line1": "1 49810U 21116B   25341.58096873 -.00000084  00000+0  00000+0 0  9995", "line2": "2 49810  57.2213 346.8506 0004018 254.5241 105.0474  1.70475630 24934"}}, "geometry": {"type": "Point", "coordinates": [-18.72086205473861, -8.517383050654786]}}, {"type": "Feature", "properties": {"norad_id": 59598, "name": "GSAT0225 (GALILEO 29)", "group": "galileo", "lat": -14.403576160996517, "lon": 96.03892229153787, "alt_km": 23230.106617398484, "timestamp": "2025-12-08T17:43:05.193807+00:00", "meta": {"OBJECT_NAME": "GSAT0225 (GALILEO 29)", "OBJECT_ID": "2024-079A", "EPOCH": "2025-12-07T07:17:21.433056", "MEAN_MOTION": 1.70474562, "ECCENTRICITY": 0.00020328, "INCLINATION": 54.9984, "RA_OF_ASC_NODE": 106.4468, "ARG_OF_PERICENTER": 173.4457, "MEAN_ANOMALY": 8.4253, "EPHEMERIS_TYPE": 0, "CLASSIFICATION_TYPE": "U", "NORAD_CAT_ID": 59598, "ELEMENT_SET_NO": 999, "REV_AT_EPOCH": 1004, "BSTAR": 0, "MEAN_MOTION_DOT": 7e-08, "MEAN_MOTION_DDOT": 0}, "tle": {"line1": "1 59598U 24079A   25341.30372029  .00000007  00000+0  00000+0 0  9994", "line2": "2 59598  54.9984 106.4468 0002032 173.4457   8.4253  1.70474562 10047"}}, "geometry": {"type": "Point", "coordinates": [96.03892229153787, -14.403576160996517]}}, {"type": "Feature", "properties": {"norad_id": 59600, "name": "GSAT0227 (GALILEO 30)", "group": "galileo", "lat": -38.77004693989125, "lon": -39.39010224270728, "alt_km": 23231.094040027223, "timestamp": "2025-12-08T17:43:05.193819+00:00", "meta": {"OBJECT_NAME": "GSAT0227 (GALILEO 30)", "OBJECT_ID": "2024-079C", "EPOCH": "2025-12-06T14:29:58.537536", "MEAN_MOTION": 1.70474646, "ECCENTRICITY": 0.00033412, "INCLINATION": 54.9931, "RA_OF_ASC_NODE": 106.4659, "ARG_OF_PERICENTER": 113.7646, "MEAN_ANOMALY": 246.2238, "EPHEMERIS_TYPE": 0, "CLASSIFICATION_TYPE": "U", "NORAD_CAT_ID": 59600, "ELEMENT_SET_NO": 999, "REV_AT_EPOCH": 1008, "BSTAR": 0, "MEAN_MOTION_DOT": 6e-08, "MEAN_MOTION_DDOT": 0}, "tle": {"line1": "1 59600U 24079C   25340.60414974  .00000006  00000+0  00000+0 0  9995", "line2": "2 59600  54.9931 106.4659 0003341 113.7646 246.2238  1.70474646 10088"}}, "geometry": {"type": "Point", "coordinates": [-39.39010224270728, -38.77004693989125]}}, {"type": "Feature", "properties": {"norad_id": 61182, "name": "GSAT0232 (GALILEO 32)", "group": "galileo", "lat": 47.7142829676254, "lon": -83.73747952824596, "alt_km": 23221.772245047996, "timestamp": "2025-12-08T17:43:05.193831+00:00", "meta": {"OBJECT_NAME": "GSAT0232 (GALILEO 32)", "OBJECT_ID": "2024-167A", "EPOCH": "2025-12-08T04:48:12.604896", "MEAN_MOTION": 1.70473279, "ECCENTRICITY": 0.00020528, "INCLINATION": 55.2426, "RA_OF_ASC_NODE": 226.5554, "ARG_OF_PERICENTER": 212.5072, "MEAN_ANOMALY": 241.5423, "EPHEMERIS_TYPE": 0, "CLASSIFICATION_TYPE": "U", "NORAD_CAT_ID": 61182, "ELEMENT_SET_NO": 999, "REV_AT_EPOCH": 762, "BSTAR": 0, "MEAN_MOTION_DOT": 1.9e-07, "MEAN_MOTION_DDOT": 0}, "tle": {"line1": "1 61182U 24167A   25342.20014589  .00000019  00000+0  00000+0 0  9991", "line2": "2 61182  55.2426 226.5554 0002052 212.5072 241.5423  1.70473279  7627"}}, "geometry": {"type": "Point", "coordinates": [-83.73747952824596, 47.7142829676254]}}]}